[{"OBJECT_NAME":"STARLINK-3360","OBJECT_ID":"2022-005AX","EPOCH":"2026-03-09T22:08:35.367648","MEAN_MOTION":15.08836848,"ECCENTRICITY":0.00019022,"INCLINATION":53.2181,"RA_OF_ASC_NODE":307.8944,"ARG_OF_PERICENTER":52.2506,"MEAN_ANOMALY":307.8658,"EPHEMERIS_TYPE":0,"CLASSIFICATION_TYPE":"U","NORAD_CAT_ID":51149,"ELEMENT_SET_NO":999,"REV_AT_EPOCH":22863,"BSTAR":-3.7113367e-5,"MEAN_MOTION_DOT":-8.79e-6,"MEAN_MOTION_DDOT":0},{"OBJECT_NAME":"FENGYUN 1C DEB","OBJECT_ID":"1999-025CCL","EPOCH":"2026-03-06T03:34:06.810816","MEAN_MOTION":14.54899177,"ECCENTRICITY":0.02544592,"INCLINATION":98.8002,"RA_OF_ASC_NODE":183.6648,"ARG_OF_PERICENTER":134.2479,"MEAN_ANOMALY":227.9915,"EPHEMERIS_TYPE":0,"CLASSIFICATION_TYPE":"U","NORAD_CAT_ID":31678,"ELEMENT_SET_NO":999,"REV_AT_EPOCH":98051,"BSTAR":0.0019572837,"MEAN_MOTION_DOT":0.00012976,"MEAN_MOTION_DDOT":0}]
